[{"OBJECT_NAME":"STARLINK-34963","OBJECT_ID":"2025-179H","EPOCH":"2026-03-09T16:54:12.774528","MEAN_MOTION":15.05654928,"ECCENTRICITY":0.00025698,"INCLINATION":97.6023,"RA_OF_ASC_NODE":113.0284,"ARG_OF_PERICENTER":120.1192,"MEAN_ANOMALY":240.0289,"EPHEMERIS_TYPE":0,"CLASSIFICATION_TYPE":"U","NORAD_CAT_ID":65242,"ELEMENT_SET_NO":999,"REV_AT_EPOCH":3197,"BSTAR":0.00038689906,"MEAN_MOTION_DOT":5.527e-5,"MEAN_MOTION_DDOT":0},{"OBJECT_NAME":"ELECTRON KICK STAGE R\/B","OBJECT_ID":"2021-004B","EPOCH":"2026-03-09T21:16:05.300544","MEAN_MOTION":14.42553081,"ECCENTRICITY":0.04246143,"INCLINATION":90.0967,"RA_OF_ASC_NODE":240.1441,"ARG_OF_PERICENTER":240.2414,"MEAN_ANOMALY":115.592,"EPHEMERIS_TYPE":0,"CLASSIFICATION_TYPE":"U","NORAD_CAT_ID":47347,"ELEMENT_SET_NO":999,"REV_AT_EPOCH":26720,"BSTAR":0.00099724223,"MEAN_MOTION_DOT":0.00010097,"MEAN_MOTION_DDOT":0}]
